2024-092D               
1 59776U 24092D   26068.88372108  .00024443  00000+0  76511-3 0  9999
2 59776  97.6418 198.2302 0008340 141.9853 218.1979 15.33078357100518
STARLINK-35534          
1 66202U 25243AB  26068.75130694  .00027200  00000+0  92720-3 0  9992
2 66202  53.1599 244.9327 0000826  53.0070 307.1007 15.30197677 20660
